SUOMI NPP               
1 37849U 11061A   26201.60989446  .00000026  00000+0  33542-4 0  9995
2 37849  98.7956 142.2589 0001020 189.3692 170.7465 14.19523309763181
YAOGAN-12               
1 37875U 11066B   26201.62542735  .00002921  00000+0  11293-3 0  9991
2 37875  97.1127 238.6251 0011060 106.0173 254.2286 15.26918341817142
BEIDOU-2 M4             
1 38251U 12018B   26200.87551788 -.00000099  00000+0  00000+0 0  9997
2 38251  55.6273 302.9841 0012238 272.0265  87.8661  1.86229306 96554
ARIRANG-3 (KOMPSAT-3)   
1 38338U 12025B   26201.63179372  .00000224  00000+0  53632-4 0  9994
2 38338  98.1189 158.5188 0005883  23.9496 336.1978 14.62231755756232
METOP-B                 
1 38771U 12049A   26201.55487042  .00000034  00000+0  35247-4 0  9999
2 38771  98.6486 252.3852 0001288 226.6070 133.5000 14.21447359718006
SJ-9A                   
1 38860U 12056A   26201.57433642  .00000588  00000+0  73740-4 0  9999
2 38860  97.6733 172.3239 0026428 144.5612 215.7366 14.85535073704545
COSMOS 2484 (RODNIK-S 6)
1 39059U 13001C   26201.63135394 -.00000009  00000+0 -13753-3 0  9998
2 39059  82.5001 201.0995 0025428 323.5174  36.4172 12.42940409612711
SARAL                   
1 39086U 13009A   26201.62896287  .00000031  00000+0  27450-4 0  9993
2 39086  98.5559  27.7736 0002015 154.1393 205.9892 14.32896615700394
STRAND-1                
1 39090U 13009E   26201.47425459  .00000134  00000+0  59206-4 0  9998
2 39090  98.3940  20.8921 0009644 126.9146 233.2926 14.37180722701842
BRITE-AUSTRIA           
1 39091U 13009F   26201.43193589  .00000073  00000+0  39374-4 0  9997
2 39091  98.4013  20.0477 0011031 136.1688 224.0376 14.36553717701822
GAOFEN-1                
1 39150U 13018A   26201.60806529  .00000073  00000+0  17693-4 0  9997
2 39150  97.9077 272.9943 0017554 154.1374 206.0718 14.76521415713171
NEE-01 PEGASO           
1 39151U 13018B   26200.88835855  .00001496  00000+0  14668-3 0  9999
2 39151  98.1265 346.1295 0013564  60.4464 299.8105 14.93802517715585
PROBA-V                 
1 39159U 13021A   26200.94203759  .00000022  00000+0  27512-4 0  9997
2 39159  98.3609 177.9355 0005068  48.9154 311.2463 14.23603886685775
ARIRANG-5 (KOMPSAT-5)   
1 39227U 13042A   26201.61978175 -.00000148  00000+0 -62144-5 0  9994
2 39227  97.6204  27.8504 0004755  42.6309 317.5285 15.04494630708882
GONETS-M 5              
1 39249U 13048A   26201.60159509 -.00000002  00000+0 -84495-4 0  9996
2 39249  82.4860 322.5514 0017524 138.4583 221.7832 12.42892526583035
GONETS-M 7              
1 39251U 13048C   26201.64444024 -.00000007  00000+0 -12518-3 0  9993
2 39251  82.4927 325.4642 0018317 139.6120 220.6324 12.42915392582992
FENGYUN 3C              
1 39260U 13052A   26201.61364376  .00000051  00000+0  47158-4 0  9992
2 39260  98.5004 173.9579 0013499 289.1925  70.7789 14.15761468663298
CASSIOPE                
1 39265U 13055A   26201.52368764  .00015416 -52109-6  16493-3 0  9998
2 39265  80.9139  26.1440 0281920 309.7902  47.8809 15.27593412672758
APRIZESAT 7             
1 39416U 13066A   26201.62880520  .00000729  00000+0  77365-4 0  9990
2 39416  97.7724 154.3723 0037332 100.0148 260.5286 14.91626724686212
ZACUBE-1 (TSHEPISOSAT)  
1 39417U 13066B   26201.39992409  .00001529  00000+0  12117-3 0  9997
2 39417  97.8001 163.8983 0044083 138.5230 221.9353 15.01343884685719
APRIZESAT 8             
1 39425U 13066K   26201.30077650  .00000409  00000+0  50268-4 0  9995
2 39425  97.8231 148.3104 0045941 175.0264 185.1418 14.87700936684599
